NORAD_CAT_ID,OBJECT_NAME,OBJECT_TYPE,EPOCH,MEAN_MOTION,ECCENTRICITY,INCLINATION,RA_OF_ASC_NODE,ARG_OF_PERICENTER,MEAN_ANOMALY,BSTAR,MEAN_MOTION_DOT,MEAN_MOTION_DDOT,TLE_LINE0,TLE_LINE1,TLE_LINE2,SEMIMAJOR_AXIS,PERIOD,APOGEE,PERIGEE,DECAYED
54088.0,STARLINK-5153,PAYLOAD,2024-01-20 18:42:51,15.08840479,0.0001585,53.2158,230.8897,78.5632,281.5538,-1.7552e-05,-5.67e-06,0.0,0 STARLINK-5153,1 54088U 22136AP  24020.77976253 -.00000567  00000-0 -17552-4 0  9997,2 54088  53.2158 230.8897 0001585  78.5632 281.5538 15.08840479 69865,6917.879,95.438,540.84,538.647,0.0
54088.0,STARLINK-5153,PAYLOAD,2024-01-20 20:18:14,15.08839458,0.0001523,53.2159,230.5926,81.6547,278.4617,-3.0846e-05,-7.79e-06,0.0,0 STARLINK-5153,1 54088U 22136AP  24020.84600306 -.00000779  00000-0 -30846-4 0  9994,2 54088  53.2159 230.5926 0001523  81.6547 278.4617 15.08839458 69406,6917.882,95.438,540.801,538.693,0.0
54088.0,STARLINK-5153,PAYLOAD,2024-01-20 23:29:01,15.08831992,0.0001677,53.2154,230.005,62.9456,297.1708,-0.00010082,-1.892e-05,0.0,0 STARLINK-5153,1 54088U 22136AP  24020.97849110 -.00001892  00000-0 -10082-3 0  9992,2 54088  53.2154 230.0050 0001677  62.9456 297.1708 15.08831992 69892,6917.905,95.438,540.93,538.61,0.0
54088.0,STARLINK-5153,PAYLOAD,2024-01-21 20:09:03,15.08829362,0.0001504,53.2171,226.1362,77.8677,282.2484,-9.9481e-05,-1.87e-05,0.0,0 STARLINK-5153,1 54088U 22136AP  24021.83961831 -.00001870  00000-0 -99481-4 0  9990,2 54088  53.2171 226.1362 0001504  77.8677 282.2484 15.08829362 69559,6917.913,95.438,540.818,538.737,0.0
54088.0,STARLINK-5153,PAYLOAD,2024-01-21 23:19:48,15.08833255,0.0001309,53.2159,225.5371,90.917,269.1972,-6.7238e-05,-1.358e-05,0.0,0 STARLINK-5153,1 54088U 22136AP  24021.97209432 -.00001358  00000-0 -67238-4 0  9993,2 54088  53.2159 225.5371 0001309  90.9170 269.1972 15.08833255 69579,6917.901,95.438,540.672,538.86,0.0
54088.0,STARLINK-5153,PAYLOAD,2024-01-22 19:59:49,15.0883813,0.0001193,53.2153,221.6708,73.9418,286.1706,0.00010965,1.458e-05,0.0,0 STARLINK-5153,1 54088U 22136AP  24022.83321235  .00001458  00000-0  10965-3 0  9998,2 54088  53.2153 221.6708 0001193  73.9418 286.1706 15.08838130 70170,6917.886,95.438,540.576,538.926,0.0
54088.0,STARLINK-5153,PAYLOAD,2024-01-23 03:56:44,15.0884317,0.0001199,53.2151,220.184,82.7786,277.3343,0.00018687,2.688e-05,0.0,0 STARLINK-5153,1 54088U 22136AP  24023.16440943  .00002688  00000-0  18687-3 0  9998,2 54088  53.2151 220.1840 0001199  82.7786 277.3343 15.08843170 69752,6917.871,95.437,540.565,538.906,0.0
54088.0,STARLINK-5153,PAYLOAD,2024-01-23 21:25:59,15.08859305,0.0001254,53.2144,216.9127,73.7432,286.3698,0.0003947,6.003e-05,0.0,0 STARLINK-5153,1 54088U 22136AP  24023.89304669  .00006003  00000-0  39470-3 0  9990,2 54088  53.2144 216.9127 0001254  73.7432 286.3698 15.08859305 69867,6917.821,95.436,540.554,538.819,0.0
54088.0,STARLINK-5153,PAYLOAD,2024-01-24 03:47:31,15.08851853,0.000135,53.2143,215.7232,72.9698,287.1442,0.0001337,1.841e-05,0.0,0 STARLINK-5153,1 54088U 22136AP  24024.15800761  .00001841  00000-0  13370-3 0  9990,2 54088  53.2143 215.7232 0001350  72.9698 287.1442 15.08851853 70376,6917.844,95.437,540.643,538.775,0.0
54088.0,STARLINK-5153,PAYLOAD,2024-01-24 19:41:21,15.08860618,0.0001313,53.2139,212.7492,72.0637,288.0498,-0.00026361,-4.483e-05,0.0,0 STARLINK-5153,1 54088U 22136AP  24024.82038572 -.00004483  00000-0 -26361-3 0  9998,2 54088  53.2139 212.7492 0001313  72.0637 288.0498 15.08860618 70470,6917.817,95.436,540.591,538.774,0.0
54088.0,STARLINK-5153,PAYLOAD,2024-01-24 21:16:44,15.0885656,0.0001404,53.2139,212.4521,76.1099,284.005,-0.0003898,-6.489e-05,0.0,0 STARLINK-5153,1 54088U 22136AP  24024.88662639 -.00006489  00000-0 -38980-3 0  9999,2 54088  53.2139 212.4521 0001404  76.1099 284.0050 15.08856560 70019,6917.83,95.437,540.666,538.724,0.0
54088.0,STARLINK-5153,PAYLOAD,2024-01-24 22:52:07,15.08855299,0.000138,53.2138,212.1545,82.8688,277.2461,-0.00043234,-7.165e-05,0.0,0 STARLINK-5153,1 54088U 22136AP  24024.95286537 -.00007165  00000-0 -43234-3 0  9996,2 54088  53.2138 212.1545 0001380  82.8688 277.2461 15.08855299 70021,6917.834,95.437,540.653,538.744,0.0
54088.0,STARLINK-5153,PAYLOAD,2024-01-25 19:32:08,15.08844685,0.000134,53.2139,208.2888,80.5287,279.5857,-0.00023187,-3.977e-05,0.0,0 STARLINK-5153,1 54088U 22136AP  24025.81398491 -.00003977  00000-0 -23187-3 0  9997,2 54088  53.2139 208.2888 0001340  80.5287 279.5857 15.08844685 70621,6917.866,95.437,540.658,538.804,0.0
54088.0,STARLINK-5153,PAYLOAD,2024-01-27 11:16:48,15.088327,0.0001427,53.214,200.8536,75.9973,284.1178,0.00021126,3.075e-05,0.0,0 STARLINK-5153,1 54088U 22136AP  24027.47000056  .00003075  00000-0  21126-3 0  9996,2 54088  53.2140 200.8536 0001427  75.9973 284.1178 15.08832700 70877,6917.903,95.438,540.755,538.781,0.0
54088.0,STARLINK-5153,PAYLOAD,2024-01-27 17:38:20,15.08837055,0.0001473,53.2143,199.6655,70.6098,289.5053,0.00023793,3.5e-05,0.0,0 STARLINK-5153,1 54088U 22136AP  24027.73496071  .00003500  00000-0  23793-3 0  9996,2 54088  53.2143 199.6655 0001473  70.6098 289.5053 15.08837055 70440,6917.889,95.438,540.773,538.735,0.0
54088.0,STARLINK-5153,PAYLOAD,2024-01-28 11:07:35,15.08837995,0.0001508,53.2151,196.3957,73.2917,286.824,0.0001969,2.847e-05,0.0,0 STARLINK-5153,1 54088U 22136AP  24028.46360367  .00002847  00000-0  19690-3 0  9999,2 54088  53.2151 196.3957 0001508  73.2917 286.8240 15.08837995 70559,6917.887,95.438,540.795,538.708,0.0
54088.0,STARLINK-5153,PAYLOAD,2024-01-28 17:29:07,15.08838808,0.0001514,53.2153,195.206,73.2075,286.9084,0.00019011,2.739e-05,0.0,0 STARLINK-5153,1 54088U 22136AP  24028.72856432  .00002739  00000-0  19011-3 0  9998,2 54088  53.2153 195.2060 0001514  73.2075 286.9084 15.08838808 71064,6917.884,95.438,540.796,538.702,0.0
54088.0,STARLINK-5153,PAYLOAD,2024-01-28 20:39:54,15.08840475,0.000146,53.2151,194.6107,77.5702,282.5453,0.00020465,2.971e-05,0.0,0 STARLINK-5153,1 54088U 22136AP  24028.86104338  .00002971  00000-0  20465-3 0  9997,2 54088  53.2151 194.6107 0001460  77.5702 282.5453 15.08840475 70616,6917.879,95.438,540.754,538.734,0.0
54088.0,STARLINK-5153,PAYLOAD,2024-01-29 20:30:39,15.08864694,0.0001354,53.2147,190.1489,87.8841,272.2306,0.00041635,6.349e-05,0.0,0 STARLINK-5153,1 54088U 22136AP  24029.85462442  .00006349  00000-0  41635-3 0  9995,2 54088  53.2147 190.1489 0001354  87.8841 272.2306 15.08864694 70763,6917.805,95.436,540.607,538.733,0.0
54088.0,STARLINK-5153,PAYLOAD,2024-01-30 10:49:08,15.08841825,0.0002432,53.2146,187.4698,93.917,266.21,-9.4991e-05,-1.8e-05,0.0,0 STARLINK-5153,1 54088U 22136AP  24030.45079169 -.00001800  00000-0 -94991-4 0  9996,2 54088  53.2146 187.4698 0002432  93.9170 266.2100 15.08841825 71323,6917.875,95.437,541.422,538.057,0.0
54088.0,STARLINK-5153,PAYLOAD,2024-01-30 13:59:55,15.08831843,0.0001295,53.217,186.8761,91.676,268.438,-0.00015514,-2.756e-05,0.0,0 STARLINK-5153,1 54088U 22136AP  24030.58327692 -.00002756  00000-0 -15514-3 0  9991,2 54088  53.2170 186.8761 0001295  91.6760 268.4380 15.08831843 70872,6917.905,95.438,540.666,538.874,0.0
54088.0,STARLINK-5153,PAYLOAD,2024-01-30 15:35:18,15.08830693,0.0001401,53.2165,186.5791,100.5116,259.6034,-0.00016764,-2.954e-05,0.0,0 STARLINK-5153,1 54088U 22136AP  24030.64951730 -.00002954  00000-0 -16764-3 0  9992,2 54088  53.2165 186.5791 0001401 100.5116 259.6034 15.08830693 71354,6917.909,95.438,540.743,538.805,0.0
54088.0,STARLINK-5153,PAYLOAD,2024-01-30 20:21:27,15.08827386,0.0001366,53.216,185.6874,94.046,266.0688,-0.00020644,-3.571e-05,0.0,0 STARLINK-5153,1 54088U 22136AP  24030.84823964 -.00003571  00000-0 -20644-3 0  9999,2 54088  53.2160 185.6874 0001366  94.0460 266.0688 15.08827386 70913,6917.919,95.438,540.729,538.839,0.0
54088.0,STARLINK-5153,PAYLOAD,2024-01-31 10:39:56,15.0881697,0.0001455,53.2165,183.0123,103.0149,257.1005,9.4593e-05,1.217e-05,0.0,0 STARLINK-5153,1 54088U 22136AP  24031.44440914  .00001217  00000-0  94593-4 0  9994,2 54088  53.2165 183.0123 0001455 103.0149 257.1005 15.08816970 71474,6917.951,95.439,540.822,538.809,0.0
54088.0,STARLINK-5153,PAYLOAD,2024-02-01 20:03:02,15.08838308,0.0001503,53.2163,176.7669,96.5008,263.6155,0.00030126,4.51e-05,0.0,0 STARLINK-5153,1 54088U 22136AP  24032.83545031  .00004510  00000-0  30126-3 0  9994,2 54088  53.2163 176.7669 0001503  96.5008 263.6155 15.08838308 71680,6917.886,95.438,540.79,538.711,0.0
54088.0,STARLINK-5153,PAYLOAD,2024-02-02 13:32:17,15.08838928,0.0001399,53.2159,173.4959,90.2745,269.8407,0.00017338,2.472e-05,0.0,0 STARLINK-5153,1 54088U 22136AP  24033.56409170  .00002472  00000-0  17338-3 0  9993,2 54088  53.2159 173.4959 0001399  90.2745 269.8407 15.08838928 71320,6917.884,95.438,540.716,538.781,0.0
54088.0,STARLINK-5153,PAYLOAD,2024-02-02 18:18:26,15.08847075,0.0001402,53.2162,172.5987,91.3995,268.7158,0.00019844,2.872e-05,0.0,0 STARLINK-5153,1 54088U 22136AP  24033.76280723  .00002872  00000-0  19844-3 0  9994,2 54088  53.2162 172.5987 0001402  91.3995 268.7158 15.08847075 71356,6917.859,95.437,540.694,538.754,0.0
54088.0,STARLINK-5153,PAYLOAD,2024-02-03 13:23:04,15.08838874,0.0001539,53.216,169.0352,124.2447,235.8691,8.747e-05,1.104e-05,0.0,0 STARLINK-5153,1 54088U 22136AP  24034.55769047  .00001104  00000-0  87470-4 0  9991,2 54088  53.2160 169.0352 0001539 124.2447 235.8691 15.08838874 71477,6917.884,95.438,540.813,538.684,0.0
54088.0,STARLINK-5153,PAYLOAD,2024-02-03 18:09:13,15.08842719,0.0001334,53.2155,168.1429,94.1776,265.9369,0.00016839,2.393e-05,0.0,0 STARLINK-5153,1 54088U 22136AP  24034.75641110  .00002393  00000-0  16839-3 0  9994,2 54088  53.2155 168.1429 0001334  94.1776 265.9369 15.08842719 71973,6917.872,95.437,540.66,538.814,0.0
54088.0,STARLINK-5153,PAYLOAD,2024-02-04 14:49:14,15.08848043,0.0001384,53.2154,164.2794,84.4435,275.6715,0.00017125,2.439e-05,0.0,0 STARLINK-5153,1 54088U 22136AP  24035.61753054  .00002439  00000-0  17125-3 0  9991,2 54088  53.2154 164.2794 0001384  84.4435 275.6715 15.08848043 71635,6917.856,95.437,540.678,538.763,0.0
